NORAD_CAT_ID,OBJECT_NAME,OBJECT_TYPE,EPOCH,MEAN_MOTION,ECCENTRICITY,INCLINATION,RA_OF_ASC_NODE,ARG_OF_PERICENTER,MEAN_ANOMALY,BSTAR,MEAN_MOTION_DOT,MEAN_MOTION_DDOT,TLE_LINE0,TLE_LINE1,TLE_LINE2,SEMIMAJOR_AXIS,PERIOD,APOGEE,PERIGEE,DECAYED
51872.0,STARLINK-3554,PAYLOAD,2024-04-03 13:29:55,15.0883946,0.0001451,53.2183,294.5595,94.0201,266.0957,0.0001826,2.619e-05,0.0,0 STARLINK-3554,1 51872U 22022W   24094.56244942  .00002619  00000-0  18260-3 0  9994,2 51872  53.2183 294.5595 0001451  94.0201 266.0957 15.08839460116662,6917.882,95.438,540.751,538.743,0.0
51872.0,STARLINK-3554,PAYLOAD,2024-04-03 19:51:28,15.0883925,0.0001354,53.2182,293.3707,92.2189,267.8958,0.00020254,2.937e-05,0.0,0 STARLINK-3554,1 51872U 22022W   24094.82741003  .00002937  00000-0  20254-3 0  9992,2 51872  53.2182 293.3707 0001354  92.2189 267.8958 15.08839250116702,6917.883,95.438,540.684,538.811,0.0
51872.0,STARLINK-3554,PAYLOAD,2024-04-04 19:42:15,15.0884123,0.0001241,53.2164,288.9114,87.99,272.1234,0.0002046,2.97e-05,0.0,0 STARLINK-3554,1 51872U 22022W   24095.82100985  .00002970  00000-0  20460-3 0  9997,2 51872  53.2164 288.9114 0001241  87.9900 272.1234 15.08841230116854,6917.877,95.437,540.6,538.883,0.0
51872.0,STARLINK-3554,PAYLOAD,2024-04-05 13:11:29,15.08839958,0.0001437,53.2195,285.6423,86.9823,273.1333,0.00014429,2.009e-05,0.0,0 STARLINK-3554,1 51872U 22022W   24096.54964960  .00002009  00000-0  14429-3 0  9999,2 51872  53.2195 285.6423 0001437  86.9823 273.1333 15.08839958116962,6917.881,95.438,540.74,538.751,0.0
51872.0,STARLINK-3554,PAYLOAD,2024-04-05 19:33:02,15.08838716,0.0001409,53.2187,284.4521,87.9477,272.1677,8.7473e-05,1.104e-05,0.0,0 STARLINK-3554,1 51872U 22022W   24096.81460975  .00001104  00000-0  87473-4 0  9991,2 51872  53.2187 284.4521 0001409  87.9477 272.1677 15.08838716117001,6917.884,95.438,540.724,538.775,0.0
51872.0,STARLINK-3554,PAYLOAD,2024-04-06 05:05:20,15.08845339,0.0001292,53.2202,282.6672,88.539,271.575,0.00011386,1.525e-05,0.0,0 STARLINK-3554,1 51872U 22022W   24097.21204580  .00001525  00000-0  11386-3 0  9990,2 51872  53.2202 282.6672 0001292  88.5390 271.5750 15.08845339117067,6917.864,95.437,540.623,538.835,0.0
51872.0,STARLINK-3554,PAYLOAD,2024-04-06 11:26:53,15.0884026,0.0001618,53.22,281.4795,106.1263,253.9908,0.00013605,1.878e-05,0.0,0 STARLINK-3554,1 51872U 22022W   24097.47700748  .00001878  00000-0  13605-3 0  9992,2 51872  53.2200 281.4795 0001618 106.1263 253.9908 15.08840260117108,6917.88,95.438,540.864,538.625,0.0
51872.0,STARLINK-3554,PAYLOAD,2024-04-06 19:23:49,15.08833045,0.0001688,53.2193,279.9913,95.202,264.9165,-9.4437e-05,-1.79e-05,0.0,0 STARLINK-3554,1 51872U 22022W   24097.80821220 -.00001790  00000-0 -94437-4 0  9996,2 51872  53.2193 279.9913 0001688  95.2020 264.9165 15.08833045117154,6917.902,95.438,540.934,538.599,0.0
51872.0,STARLINK-3554,PAYLOAD,2024-04-06 22:34:36,15.08833835,0.0001648,53.2202,279.3962,94.3308,265.7872,-1.3016e-05,-4.95e-06,0.0,0 STARLINK-3554,1 51872U 22022W   24097.94069699 -.00000495  00000-0 -13016-4 0  9990,2 51872  53.2202 279.3962 0001648  94.3308 265.7872 15.08833835117171,6917.899,95.438,540.904,538.624,0.0
51872.0,STARLINK-3554,PAYLOAD,2024-04-07 11:17:41,15.08837166,0.0001799,53.2215,277.0175,97.9203,262.1993,6.69e-05,7.77e-06,0.0,0 STARLINK-3554,1 51872U 22022W   24098.47061431  .00000777  00000-0  66900-4 0  9996,2 51872  53.2215 277.0175 0001799  97.9203 262.1993 15.08837166117251,6917.889,95.438,540.999,538.51,0.0
51872.0,STARLINK-3554,PAYLOAD,2024-04-08 20:40:46,15.08840293,0.0001459,53.2188,270.771,87.3604,272.7555,0.00012624,1.722e-05,0.0,0 STARLINK-3554,1 51872U 22022W   24099.86165360  .00001722  00000-0  12624-3 0  9990,2 51872  53.2188 270.7710 0001459  87.3604 272.7555 15.08840293117465,6917.879,95.438,540.754,538.735,0.0
51872.0,STARLINK-3554,PAYLOAD,2024-04-09 10:59:14,15.08843437,0.000157,53.2149,268.0953,90.2171,269.9001,0.00010021,1.307e-05,0.0,0 STARLINK-3554,1 51872U 22022W   24100.45781206  .00001307  00000-0  10021-3 0  9999,2 51872  53.2149 268.0953 0001570  90.2171 269.9001 15.08843437117554,6917.87,95.437,540.821,538.649,0.0
51872.0,STARLINK-3554,PAYLOAD,2024-04-09 20:31:34,15.0883607,0.000159,53.2156,266.3095,97.2501,262.8672,3.9256e-05,3.37e-06,0.0,0 STARLINK-3554,1 51872U 22022W   24100.85525865  .00000337  00000-0  39256-4 0  9994,2 51872  53.2156 266.3095 0001590  97.2501 262.8672 15.08836070117614,6917.892,95.438,540.857,538.657,0.0
51872.0,STARLINK-3554,PAYLOAD,2024-04-10 04:28:29,15.08847952,0.0001344,53.2179,264.8241,87.8868,272.2278,5.316e-05,5.58e-06,0.0,0 STARLINK-3554,1 51872U 22022W   24101.18645240  .00000558  00000-0  53160-4 0  9996,2 51872  53.2179 264.8241 0001344  87.8868 272.2278 15.08847952117666,6917.856,95.437,540.651,538.791,0.0
51872.0,STARLINK-3554,PAYLOAD,2024-04-10 10:50:02,15.08848637,0.0001323,53.218,263.635,86.3024,273.812,2.9585e-05,1.83e-06,0.0,0 STARLINK-3554,1 51872U 22022W   24101.45141216  .00000183  00000-0  29585-4 0  9998,2 51872  53.2180 263.6350 0001323  86.3024 273.8120 15.08848637117700,6917.854,95.437,540.634,538.804,0.0
51872.0,STARLINK-3554,PAYLOAD,2024-04-10 17:11:34,15.08845174,0.0001504,53.2194,262.4464,84.308,275.8083,4.2838e-05,3.94e-06,0.0,0 STARLINK-3554,1 51872U 22022W   24101.71637326  .00000394  00000-0  42838-4 0  9999,2 51872  53.2194 262.4464 0001504  84.3080 275.8083 15.08845174117746,6917.865,95.437,540.77,538.689,0.0
51872.0,STARLINK-3554,PAYLOAD,2024-04-11 10:40:49,15.08839389,0.0001745,53.2168,259.1735,89.3026,270.8166,9.0522e-05,1.153e-05,0.0,0 STARLINK-3554,1 51872U 22022W   24102.44501500  .00001153  00000-0  90522-4 0  9991,2 51872  53.2168 259.1735 0001745  89.3026 270.8166 15.08839389117853,6917.882,95.438,540.954,538.54,0.0
51872.0,STARLINK-3554,PAYLOAD,2024-04-11 13:51:35,15.08837115,0.0001552,53.2195,258.5795,89.1149,271.0021,0.00010804,1.432e-05,0.0,0 STARLINK-3554,1 51872U 22022W   24102.57749645  .00001432  00000-0  10804-3 0  9993,2 51872  53.2195 258.5795 0001552  89.1149 271.0021 15.08837115117872,6917.889,95.438,540.828,538.681,0.0
51872.0,STARLINK-3554,PAYLOAD,2024-04-12 13:42:22,15.08837388,0.000139,53.2181,254.1183,85.9172,274.1979,6.0465e-05,6.74e-06,0.0,0 STARLINK-3554,1 51872U 22022W   24103.57109845  .00000674  00000-0  60465-4 0  9992,2 51872  53.2181 254.1183 0001390  85.9172 274.1979 15.08837388118026,6917.888,95.438,540.715,538.792,0.0
51872.0,STARLINK-3554,PAYLOAD,2024-04-12 15:17:46,15.08835945,0.0001354,53.2176,253.8203,88.7607,271.354,5.029e-05,5.12e-06,0.0,0 STARLINK-3554,1 51872U 22022W   24103.63733939  .00000512  00000-0  50290-4 0  9992,2 51872  53.2176 253.8203 0001354  88.7607 271.3540 15.08835945118034,6917.893,95.438,540.694,538.821,0.0
51872.0,STARLINK-3554,PAYLOAD,2024-04-13 13:33:10,15.08836089,0.000135,53.2169,249.6544,102.8983,257.216,6.6035e-05,7.63e-06,0.0,0 STARLINK-3554,1 51872U 22022W   24104.56469982  .00000763  00000-0  66035-4 0  9991,2 51872  53.2169 249.6544 0001350 102.8983 257.2160 15.08836089118174,6917.892,95.438,540.691,538.823,0.0
51872.0,STARLINK-3554,PAYLOAD,2024-04-13 16:43:56,15.08837482,0.0001301,53.2171,249.0608,96.5774,263.5366,7.5354e-05,9.11e-06,0.0,0 STARLINK-3554,1 51872U 22022W   24104.69717924  .00000911  00000-0  75354-4 0  9996,2 51872  53.2171 249.0608 0001301  96.5774 263.5366 15.08837482118193,6917.888,95.438,540.653,538.853,0.0
51872.0,STARLINK-3554,PAYLOAD,2024-04-14 16:34:43,15.0883814,0.0001268,53.2172,244.6026,87.1889,272.9248,8.4984e-05,1.065e-05,0.0,0 STARLINK-3554,1 51872U 22022W   24105.69078211  .00001065  00000-0  84984-4 0  9996,2 51872  53.2172 244.6026 0001268  87.1889 272.9248 15.08838140118346,6917.886,95.438,540.628,538.874,0.0
51872.0,STARLINK-3554,PAYLOAD,2024-04-15 18:00:53,15.08841949,0.0001314,53.2176,239.8453,85.8398,274.2744,0.00010458,1.377e-05,0.0,0 STARLINK-3554,1 51872U 22022W   24106.75062081  .00001377  00000-0  10458-3 0  9992,2 51872  53.2176 239.8453 0001314  85.8398 274.2744 15.08841949118507,6917.874,95.437,540.648,538.83,0.0
51872.0,STARLINK-3554,PAYLOAD,2024-04-16 13:05:30,15.08876688,0.0001231,53.2196,236.2761,87.5964,272.5169,-0.00024639,-4.211e-05,0.0,0 STARLINK-3554,1 51872U 22022W   24107.54548625 -.00004211  00000-0 -24639-3 0  9991,2 51872  53.2196 236.2761 0001231  87.5964 272.5169 15.08876688118621,6917.768,95.435,540.485,538.782,0.0
51872.0,STARLINK-3554,PAYLOAD,2024-04-16 14:40:54,15.08845514,0.0001543,53.2184,235.9785,86.8665,273.2504,0.00030861,4.628e-05,0.0,0 STARLINK-3554,1 51872U 22022W   24107.61173762  .00004628  00000-0  30861-3 0  9999,2 51872  53.2184 235.9785 0001543  86.8665 273.2504 15.08845514118632,6917.864,95.437,540.796,538.661,0.0
51872.0,STARLINK-3554,PAYLOAD,2024-04-16 16:16:16,15.08850882,0.0001426,53.2172,235.6798,82.1256,277.9898,0.00026934,4.002e-05,0.0,0 STARLINK-3554,1 51872U 22022W   24107.67797427  .00004002  00000-0  26934-3 0  9997,2 51872  53.2172 235.6798 0001426  82.1256 277.9898 15.08850882118647,6917.847,95.437,540.699,538.726,0.0
51872.0,STARLINK-3554,PAYLOAD,2024-04-17 12:56:21,15.08770216,9.56e-05,53.2167,231.8128,67.0759,293.0333,-0.00086316,-0.00013972,0.0,0 STARLINK-3554,1 51872U 22022W   24108.53913837 -.00013972  00000-0 -86316-3 0  9996,2 51872  53.2167 231.8128 0000956  67.0759 293.0333 15.08770216118772,6918.094,95.442,540.62,539.297,0.0
51872.0,STARLINK-3554,PAYLOAD,2024-04-17 14:31:44,15.0876175,9.77e-05,53.2159,231.5166,69.1189,290.9908,-0.001338,-0.00021473,0.0,0 STARLINK-3554,1 51872U 22022W   24108.60537358 -.00021473  00000-0 -13380-2 0  9999,2 51872  53.2159 231.5166 0000977  69.1189 290.9908 15.08761750118783,6918.12,95.443,540.66,539.309,0.0
51872.0,STARLINK-3554,PAYLOAD,2024-04-18 12:47:06,15.0885947,0.0001561,53.2167,227.3531,94.0958,266.0212,0.00081508,0.00012715,0.0,0 STARLINK-3554,1 51872U 22022W   24109.53271627  .00012715  00000-0  81508-3 0  9991,2 51872  53.2167 227.3531 0001561  94.0958 266.0212 15.08859470118927,6917.821,95.436,540.766,538.606,0.0
